{
  "type": "FeatureCollection",
  "features": [
    {
      "type": "Feature",
      "geometry": {"type": "Point", "coordinates": [-77.031, -12.121]},
      "properties": {
        "ubigeo": "150122",
        "geo_ubigeo": "150122",
        "department": "LIMA",
        "province": "LIMA",
        "district": "MIRAFLORES",
        "winner": "fuerza_popular",
        "winner_party": "FUERZA POPULAR",
        "votes_peru_libre": 15420,
        "votes_fuerza_popular": 63880,
        "blank_votes": 910,
        "null_votes": 1550,
        "challenged_votes": 0,
        "citizens_voted": 81760,
        "eligible_voters": 93600,
        "polling_tables": 312,
        "valid_votes": 79300,
        "total_votes": 81760,
        "peru_libre_pct": 0.1945,
        "fuerza_popular_pct": 0.8055,
        "margin_votes": 48460,
        "margin_pct": 0.6111,
        "turnout_pct": 0.8735,
        "height_margin": 37166,
        "height_log_valid_votes": 80000,
        "height_log_margin_votes": 74000,
        "population_total": 99337,
        "height_log_population": 83000,
        "population_join_status": "population_by_ubigeo",
        "join_status": "matched"
      }
    },
    {
      "type": "Feature",
      "geometry": {"type": "Point", "coordinates": [-71.563, -13.607]},
      "properties": {
        "ubigeo": "080404",
        "geo_ubigeo": "080404",
        "department": "CUSCO",
        "province": "QUISPICANCHI",
        "district": "CCATCA",
        "winner": "peru_libre",
        "winner_party": "PARTIDO POLITICO NACIONAL PERU LIBRE",
        "votes_peru_libre": 5650,
        "votes_fuerza_popular": 480,
        "blank_votes": 180,
        "null_votes": 420,
        "challenged_votes": 0,
        "citizens_voted": 6730,
        "eligible_voters": 8120,
        "polling_tables": 31,
        "valid_votes": 6130,
        "total_votes": 6730,
        "peru_libre_pct": 0.9217,
        "fuerza_popular_pct": 0.0783,
        "margin_votes": 5170,
        "margin_pct": 0.8434,
        "turnout_pct": 0.8288,
        "height_margin": 51104,
        "height_log_valid_votes": 61000,
        "height_log_margin_votes": 51500,
        "population_total": 15435,
        "height_log_population": 69000,
        "population_join_status": "population_by_ubigeo",
        "join_status": "matched"
      }
    },
    {
      "type": "Feature",
      "geometry": {"type": "Point", "coordinates": [-80.633, -5.194]},
      "properties": {
        "ubigeo": "200101",
        "geo_ubigeo": "200101",
        "department": "PIURA",
        "province": "PIURA",
        "district": "PIURA",
        "winner": "fuerza_popular",
        "winner_party": "FUERZA POPULAR",
        "votes_peru_libre": 38920,
        "votes_fuerza_popular": 72480,
        "blank_votes": 2100,
        "null_votes": 4350,
        "challenged_votes": 0,
        "citizens_voted": 117850,
        "eligible_voters": 139200,
        "polling_tables": 446,
        "valid_votes": 111400,
        "total_votes": 117850,
        "peru_libre_pct": 0.3494,
        "fuerza_popular_pct": 0.6506,
        "margin_votes": 33560,
        "margin_pct": 0.3013,
        "turnout_pct": 0.8466,
        "height_margin": 18578,
        "height_log_valid_votes": 84000,
        "height_log_margin_votes": 70000,
        "population_total": 158495,
        "height_log_population": 90000,
        "population_join_status": "population_by_ubigeo",
        "join_status": "matched"
      }
    },
    {
      "type": "Feature",
      "geometry": {"type": "Point", "coordinates": [-70.021, -15.84]},
      "properties": {
        "ubigeo": "210101",
        "geo_ubigeo": "210101",
        "department": "PUNO",
        "province": "PUNO",
        "district": "PUNO",
        "winner": "peru_libre",
        "winner_party": "PARTIDO POLITICO NACIONAL PERU LIBRE",
        "votes_peru_libre": 62310,
        "votes_fuerza_popular": 8100,
        "blank_votes": 1400,
        "null_votes": 6100,
        "challenged_votes": 0,
        "citizens_voted": 77910,
        "eligible_voters": 92050,
        "polling_tables": 320,
        "valid_votes": 70410,
        "total_votes": 77910,
        "peru_libre_pct": 0.885,
        "fuerza_popular_pct": 0.115,
        "margin_votes": 54210,
        "margin_pct": 0.7699,
        "turnout_pct": 0.8464,
        "height_margin": 46694,
        "height_log_valid_votes": 79000,
        "height_log_margin_votes": 76000,
        "population_total": 135288,
        "height_log_population": 88000,
        "population_join_status": "population_by_ubigeo",
        "join_status": "matched"
      }
    }
  ]
}
